STARLINK-3127           
1 49450U 21104AU  26068.69445232 -.00000421  00000+0 -83538-5 0  9997
2 49450  53.2170 219.1354 0001367 103.3769 256.7375 15.08841272239033
ONEWEB-0618             
1 55159U 23004V   26068.89389266  .00008547  00000+0  49588-3 0  9997
2 55159  86.9069 217.8931 0010784 307.7231  52.3030 15.11974897167255
